STARLINK-33684          
1 63649U 25083R   26068.18577739  .00031758  00000+0  11578-2 0  9992
2 63649  43.0025   7.7219 0002008 254.1506 105.9124 15.27602371 49990
KUIPER-00266            
1 67789U 26030AB  26067.91293632  .00029701  00000+0  98220-3 0  9996
2 67789  51.8807 223.5904 0022313  72.5291 287.8129 15.30874235  4964
